{
  "type": "FeatureCollection",
  "features": [
    {
      "type": "Feature",
      "properties": {
        "norad_id": 36163,
        "name": "FENGYUN 1C DEB",
        "group": "fengyun-1c-debris",
        "lat": 51.740759831518496,
        "lon": -179.73822383273244,
        "alt_km": 664.9978398448256,
        "timestamp": "2025-12-13T18:50:04.719230+00:00",
        "meta_object_name": "FENGYUN 1C DEB",
        "meta_object_id": "1999-025DSL",
        "meta_epoch": "2025-12-13T00:29:29.136768",
        "meta_mean_motion": 14.59067364,
        "meta_eccentricity": 0.00385289,
        "meta_inclination": 99.0787,
        "meta_ra_of_asc_node": 191.1254,
        "meta_arg_of_pericenter": 70.7089,
        "meta_mean_anomaly": 289.8269,
        "meta_ephemeris_type": 0,
        "meta_classification_type": "U",
        "meta_norad_cat_id": 36163,
        "meta_element_set_no": 999,
        "meta_rev_at_epoch": 89191,
        "meta_bstar": 0.0044174504,
        "meta_mean_motion_dot": 0.00020992,
        "meta_mean_motion_ddot": 0,
        "tle_line1": "1 36163U 99025DSL 25347.02047612  .00020992  00000+0  44175-2 0  9991",
        "tle_line2": "2 36163  99.0787 191.1254 0038528  70.7089 289.8269 14.59067364891918"
      },
      "geometry": {
        "type": "Point",
        "coordinates": [
          -179.73822383273244,
          51.740759831518496
        ]
      }
    },
    {
      "type": "Feature",
      "properties": {
        "norad_id": 36167,
        "name": "FENGYUN 1C DEB",
        "group": "fengyun-1c-debris",
        "lat": 68.02827560258119,
        "lon": 97.61606475468817,
        "alt_km": 753.4473001157121,
        "timestamp": "2025-12-13T18:50:04.719241+00:00",
        "meta_object_name": "FENGYUN 1C DEB",
        "meta_object_id": "1999-025DSQ",
        "meta_epoch": "2025-12-11T11:38:30.131808",
        "meta_mean_motion": 14.49236898,
        "meta_eccentricity": 0.00689441,
        "meta_inclination": 98.812,
        "meta_ra_of_asc_node": 252.6028,
        "meta_arg_of_pericenter": 248.2958,
        "meta_mean_anomaly": 111.0884,
        "meta_ephemeris_type": 0,
        "meta_classification_type": "U",
        "meta_norad_cat_id": 36167,
        "meta_element_set_no": 999,
        "meta_rev_at_epoch": 67261,
        "meta_bstar": 0.0021364842,
        "meta_mean_motion_dot": 8.349e-05,
        "meta_mean_motion_ddot": 0,
        "tle_line1": "1 36167U 99025DSQ 25345.48507097  .00008349  00000+0  21365-2 0  9999",
        "tle_line2": "2 36167  98.8120 252.6028 0068944 248.2958 111.0884 14.49236898672616"
      },
      "geometry": {
        "type": "Point",
        "coordinates": [
          97.61606475468817,
          68.02827560258119
        ]
      }
    },
    {
      "type": "Feature",
      "properties": {
        "norad_id": 36173,
        "name": "FENGYUN 1C DEB",
        "group": "fengyun-1c-debris",
        "lat": 73.4993707402008,
        "lon": -84.34377884900732,
        "alt_km": 829.2648180119095,
        "timestamp": "2025-12-13T18:50:04.719252+00:00",
        "meta_object_name": "FENGYUN 1C DEB",
        "meta_object_id": "1999-025DSW",
        "meta_epoch": "2025-12-10T02:51:11.203488",
        "meta_mean_motion": 14.25169859,
        "meta_eccentricity": 0.0146399,
        "meta_inclination": 98.2133,
        "meta_ra_of_asc_node": 301.4038,
        "meta_arg_of_pericenter": 192.9431,
        "meta_mean_anomaly": 166.7976,
        "meta_ephemeris_type": 0,
        "meta_classification_type": "U",
        "meta_norad_cat_id": 36173,
        "meta_element_set_no": 999,
        "meta_rev_at_epoch": 59053,
        "meta_bstar": 0.0004108008,
        "meta_mean_motion_dot": 1.038e-05,
        "meta_mean_motion_ddot": 0,
        "tle_line1": "1 36173U 99025DSW 25344.11887967  .00001038  00000+0  41080-3 0  9997",
        "tle_line2": "2 36173  98.2133 301.4038 0146399 192.9431 166.7976 14.25169859590532"
      },
      "geometry": {
        "type": "Point",
        "coordinates": [
          -84.34377884900732,
          73.4993707402008
        ]
      }
    },
    {
      "type": "Feature",
      "properties": {
        "norad_id": 36180,
        "name": "FENGYUN 1C DEB",
        "group": "fengyun-1c-debris",
        "lat": 37.66103410093913,
        "lon": 44.7646847456141,
        "alt_km": 670.8576910930924,
        "timestamp": "2025-12-13T18:50:04.719263+00:00",
        "meta_object_name": "FENGYUN 1C DEB",
        "meta_object_id": "1999-025DTD",
        "meta_epoch": "2025-12-05T21:21:22.276224",
        "meta_mean_motion": 14.20680074,
        "meta_eccentricity": 0.02106275,
        "meta_inclination": 98.4572,
        "meta_ra_of_asc_node": 43.7979,
        "meta_arg_of_pericenter": 50.8055,
        "meta_mean_anomaly": 311.1621,
        "meta_ephemeris_type": 0,
        "meta_classification_type": "U",
        "meta_norad_cat_id": 36180,
        "meta_element_set_no": 999,
        "meta_rev_at_epoch": 70486,
        "meta_bstar": 0.00091841135,
        "meta_mean_motion_dot": 2.432e-05,
        "meta_mean_motion_ddot": 0,
        "tle_line1": "1 36180U 99025DTD 25339.88984116  .00002432  00000+0  91841-3 0  9996",
        "tle_line2": "2 36180  98.4572  43.7979 0210627  50.8055 311.1621 14.20680074704867"
      },
      "geometry": {
        "type": "Point",
        "coordinates": [
          44.7646847456141,
          37.66103410093913
        ]
      }
    },
    {
      "type": "Feature",
      "properties": {
        "norad_id": 36182,
        "name": "FENGYUN 1C DEB",
        "group": "fengyun-1c-debris",
        "lat": -31.41220548336415,
        "lon": -78.99757494213551,
        "alt_km": 785.7948422126983,
        "timestamp": "2025-12-13T18:50:04.719273+00:00",
        "meta_object_name": "FENGYUN 1C DEB",
        "meta_object_id": "1999-025DTF",
        "meta_epoch": "2025-12-12T06:09:38.316672",
        "meta_mean_motion": 14.34717961,
        "meta_eccentricity": 0.00219109,
        "meta_inclination": 99.0882,
        "meta_ra_of_asc_node": 273.786,
        "meta_arg_of_pericenter": 77.1307,
        "meta_mean_anomaly": 283.2322,
        "meta_ephemeris_type": 0,
        "meta_classification_type": "U",
        "meta_norad_cat_id": 36182,
        "meta_element_set_no": 999,
        "meta_rev_at_epoch": 87950,
        "meta_bstar": 0.002429124,
        "meta_mean_motion_dot": 6.856e-05,
        "meta_mean_motion_ddot": 0,
        "tle_line1": "1 36182U 99025DTF 25346.25669348  .00006856  00000+0  24291-2 0  9992",
        "tle_line2": "2 36182  99.0882 273.7860 0021910  77.1307 283.2322 14.34717961879503"
      },
      "geometry": {
        "type": "Point",
        "coordinates": [
          -78.99757494213551,
          -31.41220548336415
        ]
      }
    },
    {
      "type": "Feature",
      "properties": {
        "norad_id": 36186,
        "name": "FENGYUN 1C DEB",
        "group": "fengyun-1c-debris",
        "lat": 52.19395253310391,
        "lon": 43.06223702398266,
        "alt_km": 532.5755901305884,
        "timestamp": "2025-12-13T18:50:04.719284+00:00",
        "meta_object_name": "FENGYUN 1C DEB",
        "meta_object_id": "1999-025DTK",
        "meta_epoch": "2025-12-06T21:01:26.135616",
        "meta_mean_motion": 15.09149878,
        "meta_eccentricity": 0.00147295,
        "meta_inclination": 98.9889,
        "meta_ra_of_asc_node": 203.1836,
        "meta_arg_of_pericenter": 349.9169,
        "meta_mean_anomaly": 20.7197,
        "meta_ephemeris_type": 0,
        "meta_classification_type": "U",
        "meta_norad_cat_id": 36186,
        "meta_element_set_no": 999,
        "meta_rev_at_epoch": 61482,
        "meta_bstar": 0.015546812,
        "meta_mean_motion_dot": 0.00256087,
        "meta_mean_motion_ddot": 0,
        "tle_line1": "1 36186U 99025DTK 25340.87599694  .00256087  00000+0  15547-1 0  9990",
        "tle_line2": "2 36186  98.9889 203.1836 0014729 349.9169  20.7197 15.09149878614823"
      },
      "geometry": {
        "type": "Point",
        "coordinates": [
          43.06223702398266,
          52.19395253310391
        ]
      }
    },
    {
      "type": "Feature",
      "properties": {
        "norad_id": 36188,
        "name": "FENGYUN 1C DEB",
        "group": "fengyun-1c-debris",
        "lat": 48.16214202817266,
        "lon": -82.0405391401027,
        "alt_km": 719.697351920222,
        "timestamp": "2025-12-13T18:50:04.719295+00:00",
        "meta_object_name": "FENGYUN 1C DEB",
        "meta_object_id": "1999-025DTM",
        "meta_epoch": "2025-12-10T17:53:45.757536",
        "meta_mean_motion": 14.60603785,
        "meta_eccentricity": 0.00476278,
        "meta_inclination": 98.5851,
        "meta_ra_of_asc_node": 85.0962,
        "meta_arg_of_pericenter": 310.9096,
        "meta_mean_anomaly": 48.7983,
        "meta_ephemeris_type": 0,
        "meta_classification_type": "U",
        "meta_norad_cat_id": 36188,
        "meta_element_set_no": 999,
        "meta_rev_at_epoch": 88023,
        "meta_bstar": 0.0038994823,
        "meta_mean_motion_dot": 0.00019263,
        "meta_mean_motion_ddot": 0,
        "tle_line1": "1 36188U 99025DTM 25344.74566849  .00019263  00000+0  38995-2 0  9994",
        "tle_line2": "2 36188  98.5851  85.0962 0047627 310.9096  48.7983 14.60603785880238"
      },
      "geometry": {
        "type": "Point",
        "coordinates": [
          -82.0405391401027,
          48.16214202817266
        ]
      }
    }
  ]
}